OBJECT_NAME,OBJECT_ID,EPOCH,MEAN_MOTION,ECCENTRICITY,INCLINATION,RA_OF_ASC_NODE,ARG_OF_PERICENTER,MEAN_ANOMALY,EPHEMERIS_TYPE,CLASSIFICATION_TYPE,NORAD_CAT_ID,ELEMENT_SET_NO,REV_AT_EPOCH,BSTAR,MEAN_MOTION_DOT,MEAN_MOTION_DDOT
TDRS 13,2017-047A,2026-07-22T21:31:59.312928,1.00272650,.00151092,3.4617,3.6031,111.8887,136.7459,0,U,42915,999,3270,0,-.97E-6,0
QZS-3 (MICHIBIKI-3),2017-048A,2026-07-22T22:11:24.028224,1.00269077,.00028637,0.0589,202.6865,284.5158,273.3201,0,U,42917,999,3261,0,-.344E-5,0
AMAZONAS 5,2017-053A,2026-07-22T21:55:07.161312,1.00271970,.00012796,0.0336,319.8241,139.3024,109.2994,0,U,42934,999,3240,0,-.278E-5,0
ASIASAT 9,2017-057A,2026-07-22T15:19:24.461184,1.00269552,.00020682,0.0156,54.9271,56.3405,181.0650,0,U,42942,999,3221,0,-.356E-5,0
INTELSAT 37E (IS-37E),2017-059A,2026-07-22T19:47:27.688128,1.00272530,.0002927,0.0148,74.5801,50.5803,94.2714,0,U,42950,999,3242,0,-.136E-5,0
BSAT-4A,2017-059B,2026-07-22T22:10:30.423936,1.00271948,.00035638,0.0338,356.3410,88.4533,298.3250,0,U,42951,999,3215,0,-.346E-5,0
QZS-4 (MICHIBIKI-4),2017-062A,2026-07-21T06:10:27.954336,1.00289434,.07469394,40.0879,343.0509,268.6822,279.3148,0,U,42965,999,3214,0,-.358E-5,0
SES-11 (ECHOSTAR 105),2017-063A,2026-07-22T14:14:39.871392,1.00272007,.0002937,0.0167,350.7953,118.1538,300.0925,0,U,42967,999,3207,0,-.85E-6,0
KOREASAT 5A,2017-067A,2026-07-22T22:07:31.899072,1.00271946,.00010505,0.0121,28.8605,69.7372,287.0917,0,U,42984,999,3188,0,-.354E-5,0
ALCOMSAT 1,2017-078A,2026-07-22T21:28:07.183776,1.00272355,.00025262,0.0332,279.8707,200.2461,117.7342,0,U,43039,999,3165,0,-.182E-5,0
SBIRS GEO-3 (USA 282),2018-009A,2026-07-22T19:06:58.640256,1.00272698,.00020793,2.2104,13.7490,100.7246,313.4031,0,U,43162,999,3120,0,.131E-5,0
AL YAH 3,2018-012A,2026-07-22T21:29:29.553216,1.00272165,.00037427,1.6413,82.6745,34.8677,125.3529,0,U,43174,999,3120,0,-.153E-5,0
SES-14,2018-012B,2026-07-22T21:21:37.806624,1.00272383,.00011282,0.0135,35.9818,78.0036,99.5415,0,U,43175,999,738,0,-.274E-5,0
GOES 17,2018-022A,2026-07-22T21:09:44.414784,1.00271965,.00007,1.0261,85.1534,56.8779,26.5257,0,U,43226,999,3078,0,-.179E-5,0
HISPASAT 30W-6,2018-023A,2026-07-22T22:07:11.213184,1.00272800,.0005239,0.0422,51.5918,44.3734,146.5002,0,U,43228,999,3076,0,-.212E-5,0
SUPERBIRD-B3,2018-033A,2026-07-22T20:38:47.381568,1.00272268,.00015369,0.0237,292.1596,207.2032,272.9389,0,U,43271,999,3041,0,-.88E-6,0
HYLAS 4,2018-033B,2026-07-22T21:25:37.424064,1.00275086,.00006314,0.0335,257.0846,227.4068,104.0549,0,U,43272,999,3042,0,-.229E-5,0
IRNSS-1I,2018-035A,2026-07-21T21:28:12.531936,1.00274701,.00184053,28.8336,73.6540,179.0574,64.0489,0,U,43286,999,3042,0,.62E-6,0
USA 283,2018-036A,2026-07-19T12:06:14.262336,1.00271912,.0000802,0.0121,113.1212,85.3615,54.4575,0,U,43339,999,2561,0,-.322E-5,0
COSMOS 2526,2018-037A,2026-07-22T23:24:53.365824,1.00271572,.00007024,0.0298,90.4450,143.9159,185.6213,0,U,43432,999,3031,0,-.34E-5,0
APSTAR-6C,2018-041A,2026-07-21T17:08:21.046272,1.00272947,.0000212,0.0438,302.0343,323.4886,65.0495,0,U,43450,999,3015,0,-.315E-5,0
BANGABANDHUSAT-1,2018-044A,2026-07-22T22:09:09.244224,1.00270984,.00022724,0.0126,110.6505,18.9833,262.4120,0,U,43463,999,3006,0,-.358E-5,0
SES-12,2018-049A,2026-07-22T22:02:17.401344,1.00272232,.00005961,0.0112,5.7153,243.3301,117.1808,0,U,43488,999,2977,0,-.265E-5,0
FENGYUN 2H,2018-050A,2026-07-22T21:57:47.831616,1.00267294,.00020483,3.1211,78.6563,124.5777,145.8798,0,U,43491,999,2979,0,-.124E-5,0
BEIDOU-2 IGSO-7,2018-057A,2026-07-16T19:52:42.225600,1.00242392,.01049148,55.1987,162.7987,237.9691,299.1450,0,U,43539,999,2942,0,-.84E-6,0
TELSTAR 19V,2018-059A,2026-07-22T19:34:33.495744,1.00271381,.00031622,0.0329,182.6335,305.6036,42.9572,0,U,43562,999,2950,0,-.276E-5,0
TELKOM 4 (MERAH PUTIH),2018-064A,2026-07-22T22:14:57.959808,1.00271049,.00013298,0.0164,76.1032,45.6610,260.6346,0,U,43587,999,2923,0,-.34E-5,0
TELSTAR 18V,2018-069A,2026-07-22T22:14:31.229376,1.00270808,.00020087,0.0189,302.8445,176.6752,292.7782,0,U,43611,999,2899,0,-.29E-5,0
AZERSPACE 2 (IS-38),2018-074A,2026-07-22T21:48:03.765024,1.00270237,.00013933,0.0248,56.6523,56.6906,199.4424,0,U,43632,999,2880,0,0,0
HORIZONS-3E,2018-074B,2026-07-22T20:40:47.190720,1.00272442,.00004087,0.0323,238.8554,76.6575,104.2718,0,U,43633,999,2869,0,-.26E-6,0
AEHF-4 (USA 288),2018-079A,2026-07-22T19:33:18.614592,1.00273301,.00597548,1.4360,5.3977,355.2142,165.7727,0,U,43651,999,2865,0,-.272E-5,0
