{"epoch":1784799577,"count":18318,"objects":[{"id":"42915","name":"TDRS 13","type":"PAYLOAD","l1":"1 42915U 17047A   26203.89721427 -.00000097  00000-0  00000-0 0  9990","l2":"2 42915   3.4617   3.6031 0015109 111.8887 136.7459  1.00272650 32707"},{"id":"42917","name":"QZS-3","type":"PAYLOAD","l1":"1 42917U 17048A   26203.92458366 -.00000344  00000-0  00000-0 0  9991","l2":"2 42917   0.0589 202.6865 0002864 284.5158 273.3201  1.00269077 32611"},{"id":"42934","name":"AMAZONAS 5","type":"PAYLOAD","l1":"1 42934U 17053A   26203.91327733 -.00000278  00000-0  00000-0 0  9994","l2":"2 42934   0.0336 319.8241 0001280 139.3024 109.2994  1.00271970 32407"},{"id":"42942","name":"ASIASAT 9","type":"PAYLOAD","l1":"1 42942U 17057A   26203.63847756 -.00000356  00000-0  00000-0 0  9995","l2":"2 42942   0.0156  54.9271 0002068  56.3405 181.0650  1.00269552 32211"},{"id":"42950","name":"INTELSAT 37E","type":"PAYLOAD","l1":"1 42950U 17059A   26203.82462602 -.00000136  00000-0  00000-0 0  9996","l2":"2 42950   0.0148  74.5801 0002927  50.5803  94.2714  1.00272530 32429"},{"id":"42951","name":"BSAT-4A","type":"PAYLOAD","l1":"1 42951U 17059B   26203.92396324 -.00000346  00000-0  00000-0 0  9998","l2":"2 42951   0.0338 356.3410 0003564  88.4533 298.3250  1.00271948 32150"},{"id":"42965","name":"QZS-4","type":"PAYLOAD","l1":"1 42965U 17062A   26202.25726799 -.00000358  00000-0  00000-0 0  9998","l2":"2 42965  40.0879 343.0509 0746939 268.6822 279.3148  1.00289434 32147"},{"id":"42967","name":"ECHOSTAR 105/SES 11","type":"PAYLOAD","l1":"1 42967U 17063A   26203.59351703 -.00000085  00000-0  00000-0 0  9995","l2":"2 42967   0.0167 350.7953 0002937 118.1538 300.0925  1.00272007 32074"},{"id":"42984","name":"KOREASAT 5A","type":"PAYLOAD","l1":"1 42984U 17067A   26203.92189698 -.00000354  00000-0  00000-0 0  9996","l2":"2 42984   0.0121  28.8605 0001050  69.7372 287.0917  1.00271946 31886"},{"id":"43039","name":"ALCOMSAT 1","type":"PAYLOAD","l1":"1 43039U 17078A   26203.89452759 -.00000182  00000-0  00000-0 0  9996","l2":"2 43039   0.0332 279.8707 0002526 200.2461 117.7342  1.00272355 31654"},{"id":"43162","name":"SBIRS GEO 3 (USA 282)","type":"PAYLOAD","l1":"1 43162U 18009A   26203.79651204  .00000131  00000-0  00000-0 0  9996","l2":"2 43162   2.2104  13.7490 0002079 100.7246 313.4031  1.00272698 31205"},{"id":"43174","name":"AL YAH 3","type":"PAYLOAD","l1":"1 43174U 18012A   26203.89548094 -.00000153  00000-0  00000-0 0  9991","l2":"2 43174   1.6413  82.6745 0003743  34.8677 125.3529  1.00272165 31207"},{"id":"43175","name":"SES 14","type":"PAYLOAD","l1":"1 43175U 18012B   26203.89002091 -.00000274  00000-0  00000-0 0  9998","l2":"2 43175   0.0135  35.9818 0001128  78.0036  99.5415  1.00272383  7388"},{"id":"43226","name":"GOES 17","type":"PAYLOAD","l1":"1 43226U 18022A   26203.88176406 -.00000179  00000-0  00000-0 0  9991","l2":"2 43226   1.0261  85.1534 0000700  56.8779  26.5257  1.00271965 30780"},{"id":"43228","name":"HISPASAT 30W-6","type":"PAYLOAD","l1":"1 43228U 18023A   26203.92165756 -.00000212  00000-0  00000-0 0  9993","l2":"2 43228   0.0422  51.5918 0005239  44.3734 146.5002  1.00272800 30766"},{"id":"43271","name":"SUPERBIRD 8","type":"PAYLOAD","l1":"1 43271U 18033A   26203.86027062 -.00000088  00000-0  00000-0 0  9993","l2":"2 43271   0.0237 292.1596 0001537 207.2032 272.9389  1.00272268 30413"},{"id":"43272","name":"HYLAS 4","type":"PAYLOAD","l1":"1 43272U 18033B   26203.89279426 -.00000229  00000-0  00000-0 0  9997","l2":"2 43272   0.0335 257.0846 0000631 227.4068 104.0549  1.00275086 30423"},{"id":"43286","name":"IRNSS 1I","type":"PAYLOAD","l1":"1 43286U 18035A   26202.89458949  .00000062  00000-0  00000-0 0  9996","l2":"2 43286  28.8336  73.6540 0018405 179.0574  64.0489  1.00274701 30423"},{"id":"43339","name":"USA 283","type":"PAYLOAD","l1":"1 43339U 18036A   26200.50433174 -.00000322  00000-0  00000+0 0  9994","l2":"2 43339   0.0121 113.1212 0000802  85.3615  54.4575  1.00271912 25614"},{"id":"43432","name":"COSMOS 2526","type":"PAYLOAD","l1":"1 43432U 18037A   26203.97561766 -.00000340  00000-0  00000-0 0  9993","l2":"2 43432   0.0298  90.4450 0000702 143.9159 185.6213  1.00271572 30318"},{"id":"43450","name":"APSTAR 6C","type":"PAYLOAD","l1":"1 43450U 18041A   26202.71413248 -.00000315  00000-0  00000+0 0  9991","l2":"2 43450   0.0438 302.0343 0000212 323.4886  65.0495  1.00272947 30157"},{"id":"43463","name":"BANGABANDHUSAT-1","type":"PAYLOAD","l1":"1 43463U 18044A   26203.92302366 -.00000358  00000-0  00000-0 0  9998","l2":"2 43463   0.0126 110.6505 0002272  18.9833 262.4120  1.00270984 30061"},{"id":"43488","name":"SES 12","type":"PAYLOAD","l1":"1 43488U 18049A   26203.91825696 -.00000265  00000-0  00000-0 0  9992","l2":"2 43488   0.0112   5.7153 0000596 243.3301 117.1808  1.00272232 29770"},{"id":"43491","name":"FENGYUN 2H","type":"PAYLOAD","l1":"1 43491U 18050A   26203.91513694 -.00000124  00000-0  00000-0 0  9994","l2":"2 43491   3.1211  78.6563 0002048 124.5777 145.8798  1.00267294 29793"},{"id":"43539","name":"BEIDOU IGSO-7","type":"PAYLOAD","l1":"1 43539U 18057A   26197.82826650 -.00000084  00000-0  00000-0 0  9990","l2":"2 43539  55.1987 162.7987 0104915 237.9691 299.1450  1.00242392 29428"},{"id":"43562","name":"TELSTAR 19V","type":"PAYLOAD","l1":"1 43562U 18059A   26203.81566546 -.00000276  00000-0  00000-0 0  9993","l2":"2 43562   0.0329 182.6335 0003162 305.6036  42.9572  1.00271381 29507"},{"id":"43587","name":"TELKOM-4","type":"PAYLOAD","l1":"1 43587U 18064A   26203.92705972 -.00000340  00000-0  00000-0 0  9998","l2":"2 43587   0.0164  76.1032 0001330  45.6610 260.6346  1.00271049 29235"},{"id":"43611","name":"TELSTAR 18V","type":"PAYLOAD","l1":"1 43611U 18069A   26203.92675034 -.00000290  00000-0  00000-0 0  9990","l2":"2 43611   0.0189 302.8445 0002009 176.6752 292.7782  1.00270808 28997"},{"id":"43632","name":"AZERSPACE 2/INTELSAT 38","type":"PAYLOAD","l1":"1 43632U 18074A   26203.90837691  .00000000  00000-0  00000-0 0  9994","l2":"2 43632   0.0248  56.6523 0001393  56.6906 199.4424  1.00270237 28802"},{"id":"43633","name":"HORIZONS 3E","type":"PAYLOAD","l1":"1 43633U 18074B   26203.86165730 -.00000026  00000-0  00000-0 0  9997","l2":"2 43633   0.0323 238.8554 0000409  76.6575 104.2718  1.00272442 28693"},{"id":"43651","name":"AEHF 4 (USA 288)","type":"PAYLOAD","l1":"1 43651U 18079A   26203.81479878 -.00000272  00000-0  00000-0 0  9991","l2":"2 43651   1.4360   5.3977 0059755 355.2142 165.7727  1.00273301 28652"}]}